{
  "type": "FeatureCollection",
  "features": [
    {
      "type": "Feature",
      "properties": {
        "norad_id": 30090,
        "name": "FENGYUN 1C DEB",
        "group": "fengyun-1c-debris",
        "lat": -40.35612461879823,
        "lon": -20.7593141564345,
        "alt_km": 827.4895380358466,
        "timestamp": "2025-12-19T16:54:44.535089+00:00",
        "meta_object_name": "FENGYUN 1C DEB",
        "meta_object_id": "1999-025QT",
        "meta_epoch": "2025-12-18T11:35:44.914272",
        "meta_mean_motion": 14.29039853,
        "meta_eccentricity": 0.005816,
        "meta_inclination": 99.409,
        "meta_ra_of_asc_node": 166.0236,
        "meta_arg_of_pericenter": 95.4635,
        "meta_mean_anomaly": 324.2573,
        "meta_ephemeris_type": 0,
        "meta_classification_type": "U",
        "meta_norad_cat_id": 30090,
        "meta_element_set_no": 999,
        "meta_rev_at_epoch": 98352,
        "meta_bstar": 0.00027280525,
        "meta_mean_motion_dot": 6.53e-06,
        "meta_mean_motion_ddot": 0,
        "tle_line1": "1 30090U 99025QT  25352.48315873  .00000653  00000+0  27281-3 0  9999",
        "tle_line2": "2 30090  99.4090 166.0236 0058160  95.4635 324.2573 14.29039853983528"
      },
      "geometry": {
        "type": "Point",
        "coordinates": [
          -20.7593141564345,
          -40.35612461879823
        ]
      }
    },
    {
      "type": "Feature",
      "properties": {
        "norad_id": 30092,
        "name": "FENGYUN 1C DEB",
        "group": "fengyun-1c-debris",
        "lat": 70.40232257885772,
        "lon": 147.05737334121636,
        "alt_km": 808.782988974589,
        "timestamp": "2025-12-19T16:54:44.535100+00:00",
        "meta_object_name": "FENGYUN 1C DEB",
        "meta_object_id": "1999-025QV",
        "meta_epoch": "2025-12-18T10:48:55.420416",
        "meta_mean_motion": 14.39158751,
        "meta_eccentricity": 0.00826846,
        "meta_inclination": 98.923,
        "meta_ra_of_asc_node": 171.938,
        "meta_arg_of_pericenter": 233.4391,
        "meta_mean_anomaly": 185.9912,
        "meta_ephemeris_type": 0,
        "meta_classification_type": "U",
        "meta_norad_cat_id": 30092,
        "meta_element_set_no": 999,
        "meta_rev_at_epoch": 98831,
        "meta_bstar": 0.00045100053,
        "meta_mean_motion_dot": 1.404e-05,
        "meta_mean_motion_ddot": 0,
        "tle_line1": "1 30092U 99025QV  25352.45064144  .00001404  00000+0  45100-3 0  9995",
        "tle_line2": "2 30092  98.9230 171.9380 0082684 233.4391 185.9912 14.39158751988317"
      },
      "geometry": {
        "type": "Point",
        "coordinates": [
          147.05737334121636,
          70.40232257885772
        ]
      }
    },
    {
      "type": "Feature",
      "properties": {
        "norad_id": 30093,
        "name": "FENGYUN 1C DEB",
        "group": "fengyun-1c-debris",
        "lat": 40.6375664362489,
        "lon": -139.13407882207477,
        "alt_km": 737.7742138110843,
        "timestamp": "2025-12-19T16:54:44.535110+00:00",
        "meta_object_name": "FENGYUN 1C DEB",
        "meta_object_id": "1999-025QW",
        "meta_epoch": "2025-12-19T07:15:01.260288",
        "meta_mean_motion": 14.4372683,
        "meta_eccentricity": 0.00697496,
        "meta_inclination": 98.868,
        "meta_ra_of_asc_node": 228.1471,
        "meta_arg_of_pericenter": 318.1175,
        "meta_mean_anomaly": 151.2076,
        "meta_ephemeris_type": 0,
        "meta_classification_type": "U",
        "meta_norad_cat_id": 30093,
        "meta_element_set_no": 999,
        "meta_rev_at_epoch": 98898,
        "meta_bstar": 0.00062222058,
        "meta_mean_motion_dot": 2.128e-05,
        "meta_mean_motion_ddot": 0,
        "tle_line1": "1 30093U 99025QW  25353.30209792  .00002128  00000+0  62222-3 0  9999",
        "tle_line2": "2 30093  98.8680 228.1471 0069749 318.1175 151.2076 14.43726830988984"
      },
      "geometry": {
        "type": "Point",
        "coordinates": [
          -139.13407882207477,
          40.6375664362489
        ]
      }
    },
    {
      "type": "Feature",
      "properties": {
        "norad_id": 30095,
        "name": "FENGYUN 1C DEB",
        "group": "fengyun-1c-debris",
        "lat": 41.691171773901175,
        "lon": -92.43602212557553,
        "alt_km": 620.7371724805544,
        "timestamp": "2025-12-19T16:54:44.535121+00:00",
        "meta_object_name": "FENGYUN 1C DEB",
        "meta_object_id": "1999-025QY",
        "meta_epoch": "2025-12-19T00:31:21.900000",
        "meta_mean_motion": 14.82210445,
        "meta_eccentricity": 0.01646286,
        "meta_inclination": 99.2214,
        "meta_ra_of_asc_node": 275.0975,
        "meta_arg_of_pericenter": 312.7324,
        "meta_mean_anomaly": 46.0125,
        "meta_ephemeris_type": 0,
        "meta_classification_type": "U",
        "meta_norad_cat_id": 30095,
        "meta_element_set_no": 999,
        "meta_rev_at_epoch": 99428,
        "meta_bstar": 0.0016351981,
        "meta_mean_motion_dot": 0.00016478,
        "meta_mean_motion_ddot": 0,
        "tle_line1": "1 30095U 99025QY  25353.02178125  .00016478  00000+0  16352-2 0  9990",
        "tle_line2": "2 30095  99.2214 275.0975 0164628 312.7324  46.0125 14.82210445994281"
      },
      "geometry": {
        "type": "Point",
        "coordinates": [
          -92.43602212557553,
          41.691171773901175
        ]
      }
    },
    {
      "type": "Feature",
      "properties": {
        "norad_id": 30096,
        "name": "FENGYUN 1C DEB",
        "group": "fengyun-1c-debris",
        "lat": -46.973364650659356,
        "lon": -116.61222759143119,
        "alt_km": 737.922594294826,
        "timestamp": "2025-12-19T16:54:44.535132+00:00",
        "meta_object_name": "FENGYUN 1C DEB",
        "meta_object_id": "1999-025QZ",
        "meta_epoch": "2025-12-19T04:06:36.019008",
        "meta_mean_motion": 14.31702393,
        "meta_eccentricity": 0.00794222,
        "meta_inclination": 99.1473,
        "meta_ra_of_asc_node": 72.7664,
        "meta_arg_of_pericenter": 213.714,
        "meta_mean_anomaly": 145.8976,
        "meta_ephemeris_type": 0,
        "meta_classification_type": "U",
        "meta_norad_cat_id": 30096,
        "meta_element_set_no": 999,
        "meta_rev_at_epoch": 98638,
        "meta_bstar": 0.00025322509,
        "meta_mean_motion_dot": 6.5e-06,
        "meta_mean_motion_ddot": 0,
        "tle_line1": "1 30096U 99025QZ  25353.17125022  .00000650  00000+0  25323-3 0  9999",
        "tle_line2": "2 30096  99.1473  72.7664 0079422 213.7140 145.8976 14.31702393986384"
      },
      "geometry": {
        "type": "Point",
        "coordinates": [
          -116.61222759143119,
          -46.973364650659356
        ]
      }
    },
    {
      "type": "Feature",
      "properties": {
        "norad_id": 30099,
        "name": "FENGYUN 1C DEB",
        "group": "fengyun-1c-debris",
        "lat": -34.256034454130656,
        "lon": 71.70816809265675,
        "alt_km": 819.8273214846367,
        "timestamp": "2025-12-19T16:54:44.535142+00:00",
        "meta_object_name": "FENGYUN 1C DEB",
        "meta_object_id": "1999-025RC",
        "meta_epoch": "2025-12-19T03:44:49.013376",
        "meta_mean_motion": 14.2594604,
        "meta_eccentricity": 0.0061364,
        "meta_inclination": 98.54,
        "meta_ra_of_asc_node": 65.3001,
        "meta_arg_of_pericenter": 225.7543,
        "meta_mean_anomaly": 164.5884,
        "meta_ephemeris_type": 0,
        "meta_classification_type": "U",
        "meta_norad_cat_id": 30099,
        "meta_element_set_no": 999,
        "meta_rev_at_epoch": 98281,
        "meta_bstar": 0.00023519273,
        "meta_mean_motion_dot": 5.29e-06,
        "meta_mean_motion_ddot": 0,
        "tle_line1": "1 30099U 99025RC  25353.15612284  .00000529  00000+0  23519-3 0  9991",
        "tle_line2": "2 30099  98.5400  65.3001 0061364 225.7543 164.5884 14.25946040982811"
      },
      "geometry": {
        "type": "Point",
        "coordinates": [
          71.70816809265675,
          -34.256034454130656
        ]
      }
    },
    {
      "type": "Feature",
      "properties": {
        "norad_id": 30102,
        "name": "FENGYUN 1C DEB",
        "group": "fengyun-1c-debris",
        "lat": 52.747782718322625,
        "lon": -10.037063108458698,
        "alt_km": 783.4004428134331,
        "timestamp": "2025-12-19T16:54:44.535153+00:00",
        "meta_object_name": "FENGYUN 1C DEB",
        "meta_object_id": "1999-025RF",
        "meta_epoch": "2025-12-19T00:01:58.810368",
        "meta_mean_motion": 14.22139737,
        "meta_eccentricity": 0.01413392,
        "meta_inclination": 98.3789,
        "meta_ra_of_asc_node": 0.4693,
        "meta_arg_of_pericenter": 341.9197,
        "meta_mean_anomaly": 71.493,
        "meta_ephemeris_type": 0,
        "meta_classification_type": "U",
        "meta_norad_cat_id": 30102,
        "meta_element_set_no": 999,
        "meta_rev_at_epoch": 98047,
        "meta_bstar": 0.0002571143,
        "meta_mean_motion_dot": 5.89e-06,
        "meta_mean_motion_ddot": 0,
        "tle_line1": "1 30102U 99025RF  25353.00137512  .00000589  00000+0  25711-3 0  9998",
        "tle_line2": "2 30102  98.3789   0.4693 0141339 341.9197  71.4930 14.22139737980470"
      },
      "geometry": {
        "type": "Point",
        "coordinates": [
          -10.037063108458698,
          52.747782718322625
        ]
      }
    }
  ]
}